IRIDIUM 154             
1 43574U 18061F   26170.39442541  .00000233  00000+0  76296-4 0  9998
2 43574  86.3959  55.8839 0002149  88.4351 271.7091 14.34217601413721
IRIDIUM 163             
1 43575U 18061G   26170.44516615  .00000056  00000+0  13022-4 0  9990
2 43575  86.3958  55.7780 0002237  83.3809 276.7641 14.34216711413700
IRIDIUM 156             
1 43576U 18061H   26170.41980078  .00000235  00000+0  76818-4 0  9997
2 43576  86.3959  55.7960 0002052  83.1599 276.9830 14.34216168413697
IRIDIUM 164             
1 43577U 18061J   26170.19146338  .00000131  00000+0  39573-4 0  9998
2 43577  86.3959  55.9318 0002151  89.4805 270.6637 14.34217552413702
IRIDIUM 159             
1 43578U 18061K   26170.43882515  .00000050  00000+0  10712-4 0  9994
2 43578  86.3959  55.7651 0002268  84.1099 276.0355 14.34217809413709
IRIDIUM 180             
1 43922U 19002A   26170.57785771  .00000095  00000+0  26851-4 0  9994
2 43922  86.3972 352.5979 0002260  89.4357 270.7097 14.34217576389331
IRIDIUM 176             
1 43923U 19002B   26170.26591116  .00000588  00000+0  89275-4 0  9995
2 43923  86.6091 352.6714 0002318  93.3865 266.7617 14.72269379399555
IRIDIUM 168             
1 43924U 19002C   26170.57151000  .00000166  00000+0  52219-4 0  9994
2 43924  86.3973 352.6779 0002206  89.8088 270.3361 14.34219843389315
IRIDIUM 173             
1 43925U 19002D   26170.55883046  .00000174  00000+0  55066-4 0  9997
2 43925  86.3968 352.5718 0002196  87.8162 272.3285 14.34217568389297
IRIDIUM 169             
1 43926U 19002E   26170.33891536  .00000214  00000+0  63558-4 0  9997
2 43926  86.4223  24.2936 0001789  74.3585 285.7810 14.38609892390535
IRIDIUM 172             
1 43927U 19002F   26170.48271500  .00000171  00000+0  54098-4 0  9998
2 43927  86.3970 352.6117 0002258  88.7729 271.3725 14.34219410389290
IRIDIUM 175             
1 43928U 19002G   26170.56323433  .00000257  00000+0  70014-4 0  9992
2 43928  86.4514 289.5276 0002821 171.9995 188.1251 14.43613808399329
IRIDIUM 171             
1 43929U 19002H   26170.25438566 -.00000030  00000+0 -17776-4 0  9990
2 43929  86.3974 353.0136 0001947  91.6470 268.4949 14.34217298389255
IRIDIUM 170             
1 43930U 19002J   26170.47599170  .00000566  00000+0  85768-4 0  9993
2 43930  86.6091 352.5860 0002360  89.9378 270.2110 14.72269966399595
IRIDIUM 167             
1 43931U 19002K   26170.52711667  .00000010  00000+0 -34759-5 0  9997
2 43931  86.3966 352.6157 0001792  93.5547 266.5854 14.34217525389292
IRIDIUM 181             
1 56726U 23068S   26170.39432243  .00000248  00000+0  67745-4 0  9997
2 56726  86.4499  55.8681 0002377  89.1192 271.0281 14.43307841162757
IRIDIUM 177             
1 56727U 23068T   26170.48583290  .00000855  00000+0  10907-3 0  9998
2 56727  86.1963 327.6993 0002363  88.5872 271.5619 14.80228685166708
IRIDIUM 174             
1 56728U 23068U   26169.98789103  .00000602  00000+0  91459-4 0  9995
2 56728  86.6098 352.9377 0002446  84.3279 275.8217 14.72265957166285
IRIDIUM 178             
1 56729U 23068V   26170.33975499  .00000745  00000+0  94581-4 0  9999
2 56729  86.6536  24.4605 0002617  85.5359 274.6161 14.80236922166688
IRIDIUM 179             
1 56730U 23068W   26170.33436002  .00000756  00000+0  96097-4 0  9999
2 56730  86.6773  33.4488 0002460  87.9420 272.2083 14.80234371166686
