OBJECT_NAME,OBJECT_ID,EPOCH,MEAN_MOTION,ECCENTRICITY,INCLINATION,RA_OF_ASC_NODE,ARG_OF_PERICENTER,MEAN_ANOMALY,EPHEMERIS_TYPE,CLASSIFICATION_TYPE,NORAD_CAT_ID,ELEMENT_SET_NO,REV_AT_EPOCH,BSTAR,MEAN_MOTION_DOT,MEAN_MOTION_DDOT
IRIDIUM 154,2018-061F,2026-06-19T09:27:58.355424,14.34217601,.00021492,86.3959,55.8839,88.4351,271.7091,0,U,43574,999,41372,.76295737E-4,.233E-5,0
IRIDIUM 163,2018-061G,2026-06-19T10:41:02.355360,14.34216711,.00022376,86.3958,55.7780,83.3809,276.7641,0,U,43575,999,41370,.13022205E-4,.56E-6,0
IRIDIUM 156,2018-061H,2026-06-19T10:04:30.787392,14.34216168,.00020522,86.3959,55.7960,83.1599,276.9830,0,U,43576,999,41369,.76818392E-4,.235E-5,0
IRIDIUM 164,2018-061J,2026-06-19T04:35:42.436032,14.34217552,.00021519,86.3959,55.9318,89.4805,270.6637,0,U,43577,999,41370,.3957317E-4,.131E-5,0
IRIDIUM 159,2018-061K,2026-06-19T10:31:54.492960,14.34217809,.0002268,86.3959,55.7651,84.1099,276.0355,0,U,43578,999,41370,.10711988E-4,.5E-6,0
IRIDIUM 180,2019-002A,2026-06-19T13:52:06.906144,14.34217576,.00022607,86.3972,352.5979,89.4357,270.7097,0,U,43922,999,38933,.26850975E-4,.95E-6,0
IRIDIUM 176,2019-002B,2026-06-19T06:22:54.724224,14.72269379,.00023182,86.6091,352.6714,93.3865,266.7617,0,U,43923,999,39955,.89274609E-4,.588E-5,0
IRIDIUM 168,2019-002C,2026-06-19T13:42:58.464000,14.34219843,.00022069,86.3973,352.6779,89.8088,270.3361,0,U,43924,999,38931,.5221949E-4,.166E-5,0
IRIDIUM 173,2019-002D,2026-06-19T13:24:42.951744,14.34217568,.00021968,86.3968,352.5718,87.8162,272.3285,0,U,43925,999,38929,.55065794E-4,.174E-5,0
IRIDIUM 169,2019-002E,2026-06-19T08:08:02.287104,14.38609892,.0001789,86.4223,24.2936,74.3585,285.7810,0,U,43926,999,39053,.63558155E-4,.214E-5,0
IRIDIUM 172,2019-002F,2026-06-19T11:35:06.576000,14.34219410,.00022586,86.3970,352.6117,88.7729,271.3725,0,U,43927,999,38929,.54098023E-4,.171E-5,0
IRIDIUM 175,2019-002G,2026-06-19T13:31:03.446112,14.43613808,.00028215,86.4514,289.5276,171.9995,188.1251,0,U,43928,999,39932,.70013693E-4,.257E-5,0
IRIDIUM 171,2019-002H,2026-06-19T06:06:18.921024,14.34217298,.00019476,86.3974,353.0136,91.6470,268.4949,0,U,43929,999,38925,-.17775527E-4,-.3E-6,0
IRIDIUM 170,2019-002J,2026-06-19T11:25:25.682880,14.72269966,.00023604,86.6091,352.5860,89.9378,270.2110,0,U,43930,999,39959,.85767754E-4,.566E-5,0
IRIDIUM 167,2019-002K,2026-06-19T12:39:02.880288,14.34217525,.00017927,86.3966,352.6157,93.5547,266.5854,0,U,43931,999,38929,-.3475891E-5,.1E-6,0
IRIDIUM 181,2023-068S,2026-06-19T09:27:49.457952,14.43307841,.00023779,86.4499,55.8681,89.1192,271.0281,0,U,56726,999,16275,.67744618E-4,.248E-5,0
IRIDIUM 177,2023-068T,2026-06-19T11:39:35.962560,14.80228685,.00023633,86.1963,327.6993,88.5872,271.5619,0,U,56727,999,16670,.1090733E-3,.855E-5,0
IRIDIUM 174,2023-068U,2026-06-18T23:42:33.784992,14.72265957,.00024465,86.6098,352.9377,84.3279,275.8217,0,U,56728,999,16628,.91459462E-4,.602E-5,0
IRIDIUM 178,2023-068V,2026-06-19T08:09:14.831136,14.80236922,.00026176,86.6536,24.4605,85.5359,274.6161,0,U,56729,999,16668,.94580602E-4,.745E-5,0
IRIDIUM 179,2023-068W,2026-06-19T08:01:28.705728,14.80234371,.00024609,86.6773,33.4488,87.9420,272.2083,0,U,56730,999,16668,.96097143E-4,.756E-5,0
